     2.100          NAVIGATION                              RINEX VERSION / TYPE
fic2rin                                 12/17/2012 00:04:32 PGM / RUN BY / DATE
                                                            END OF HEADER
29 12 12 16  1 59 44.0  .387874897569D-03  .397903932026D-11  .000000000000D+00
     .000000000000D+00 -.819062500000D+02  .412267172583D-08  .962147786757D+00
    -.438466668129D-05  .177708489355D-02  .117663294077D-04  .515374065590D+04
     .718400000000D+04  .242143869400D-07  .418944054404D+00 -.316649675369D-07
     .965114609492D+00  .156281250000D+03 -.111656717840D+01 -.779318176016D-08
     .100361323309D-09  .100000000000D+01  .171900000000D+04  .000000000000D+00
     .240000000000D+01  .000000000000D+00 -.931322574615D-08  .000000000000D+00
     .438600000000D+04  .400000000000D+01
29 12 12 16  3 59 44.0  .387904234231D-03  .397903932026D-11  .000000000000D+00
     .200000000000D+01 -.890937500000D+02  .411552857114D-08  .201240962517D+01
    -.468827784061D-05  .177764624823D-02  .114366412163D-04  .515374032211D+04
     .143840000000D+05  .335276126862D-07  .418888342095D+00  .465661287308D-07
     .965115519427D+00  .161218750000D+03 -.111669265142D+01 -.772853621027D-08
     .732173355102D-10  .100000000000D+01  .171900000000D+04  .000000000000D+00
     .240000000000D+01  .000000000000D+00 -.931322574615D-08  .200000000000D+01
     .720600000000D+04  .400000000000D+01
 1 12 12 16  4  0  0.0  .287761446089D-03  .204636307899D-11  .000000000000D+00
     .330000000000D+02  .360625000000D+02  .467662337156D-08  .300935673958D+01
     .191293656826D-05  .148192897905D-02  .840425491333D-05  .515370474815D+04
     .144000000000D+05  .316649675369D-07  .141837969780D+01  .447034835815D-07
     .959659772722D+00  .217625000000D+03  .518210722014D+00 -.807069331963D-08
     .619311511096D-09  .100000000000D+01  .171900000000D+04  .000000000000D+00
     .240000000000D+01  .000000000000D+00  .838190317154D-08  .330000000000D+02
     .720600000000D+04  .400000000000D+01
 2 12 12 16  4  0  0.0  .411747489125D-03  .102318153949D-11  .000000000000D+00
     .940000000000D+02  .249062500000D+02  .504271004911D-08 -.227271525999D+01
     .129453837872D-05  .117678114912D-01  .860542058945D-05  .515357182121D+04
     .144000000000D+05  .484287738800D-07  .140026116920D+01 -.197440385818D-06
     .938189817292D+00  .200906250000D+03 -.270699448482D+01 -.810212320024D-08
     .704315051835D-09  .100000000000D+01  .171900000000D+04  .000000000000D+00
     .240000000000D+01  .000000000000D+00 -.176951289177D-07  .940000000000D+02
     .720600000000D+04  .400000000000D+01
 3 12 12 16  4  0  0.0  .142213888466D-03  .500222085975D-11  .000000000000D+00
     .700000000000D+02 -.103687500000D+03  .475019786481D-08 -.210184719782D+01
    -.537000596523D-05  .158730797702D-01  .105835497379D-04  .515376907349D+04
     .144000000000D+05  .236555933952D-06  .233192888368D+00 -.242143869400D-07
     .933324889071D+00  .156468750000D+03  .125942061828D+01 -.788282835144D-08
    -.114290474943D-10  .100000000000D+01  .171900000000D+04  .000000000000D+00
     .240000000000D+01  .000000000000D+00 -.465661287308D-08  .700000000000D+02
     .720600000000D+04  .400000000000D+01
 4 12 12 16  4  0  0.0  .764918513596D-04  .111413100967D-10  .000000000000D+00
     .520000000000D+02  .269062500000D+02  .520450250271D-08  .101300697935D+01
     .157766044140D-05  .104092274560D-01  .875070691109D-05  .515370635986D+04
     .144000000000D+05 -.106170773506D-06  .141689571809D+01  .186264514923D-07
     .937226418442D+00  .202437500000D+03  .945412322847D+00 -.842856536929D-08
     .472876840076D-09  .100000000000D+01  .171900000000D+04  .000000000000D+00
     .240000000000D+01  .000000000000D+00 -.651925802231D-08  .520000000000D+02
     .720600000000D+04  .400000000000D+01
 5 12 12 16  4  0  0.0 -.373046379536D-03 -.227373675443D-11  .000000000000D+00
     .190000000000D+02 -.145000000000D+02  .514342853016D-08 -.204277289952D+00
    -.648200511932D-06  .315252994187D-02  .583007931709D-05  .515379516792D+04
     .144000000000D+05  .428408384323D-07  .246492768021D+01  .000000000000D+00
     .949590969864D+00  .258750000000D+03  .299933112938D+00 -.838392065252D-08
    -.280368821344D-09  .100000000000D+01  .171900000000D+04  .000000000000D+00
     .240000000000D+01  .000000000000D+00 -.102445483208D-07  .190000000000D+02
     .720600000000D+04  .400000000000D+01
 6 12 12 16  4  0  0.0  .422822777182D-03 -.130739863380D-10  .000000000000D+00
     .720000000000D+02 -.909375000000D+02  .475341228442D-08 -.199617294610D+00
    -.489689409733D-05  .747915881220D-02  .113472342491D-04  .515369037819D+04
     .144000000000D+05  .115483999252D-06  .311369643258D+00 -.109896063805D-06
     .940025861405D+00  .152687500000D+03 -.405553387372D+00 -.817676916669D-08
    -.632169189527D-10  .100000000000D+01  .171900000000D+04  .000000000000D+00
     .240000000000D+01  .000000000000D+00 -.512227416039D-08  .720000000000D+02
     .720600000000D+04  .400000000000D+01
 7 12 12 16  4  0  0.0  .157584436238D-03  .443378667114D-11  .000000000000D+00
     .170000000000D+02  .122843750000D+03  .439196865741D-08  .263219347338D+01
     .635348260403D-05  .604704848956D-02  .473111867905D-05  .515371633530D+04
     .144000000000D+05 -.968575477600D-07 -.170419633299D+01 -.409781932831D-07
     .975570147910D+00  .298093750000D+03 -.292565351468D+01 -.816891169653D-08
     .385016037463D-09  .100000000000D+01  .171900000000D+04  .000000000000D+00
     .240000000000D+01  .000000000000D+00 -.111758708954D-07  .170000000000D+02
     .720600000000D+04  .400000000000D+01
 8 12 12 16  4  0  0.0  .352691859007D-05  .341060513165D-12  .000000000000D+00
     .105000000000D+03  .113968750000D+03  .401873882517D-08  .203006729508D+01
     .589713454247D-05  .127163702855D-01  .449083745480D-05  .515362196159D+04
     .144000000000D+05 -.176951289177D-06 -.161643863356D+01  .188127160072D-06
     .998021478526D+00  .315968750000D+03 -.289102109719D+01 -.806426448041D-08
     .307512809143D-09  .100000000000D+01  .171900000000D+04  .000000000000D+00
     .340000000000D+01  .000000000000D+00 -.419095158577D-08  .105000000000D+03
     .720600000000D+04  .400000000000D+01
 9 12 12 16  4  0  0.0  .206917989999D-03  .261479726760D-11  .000000000000D+00
     .620000000000D+02  .113312500000D+03  .405374028313D-08  .229342113330D+01
     .567547976971D-05  .170575871598D-01  .507757067680D-05  .515284211922D+04
     .144000000000D+05  .165775418282D-06 -.172851527457D+01 -.152736902237D-06
     .984253356686D+00  .287593750000D+03  .163427848651D+01 -.777818113532D-08
     .242867259253D-09  .100000000000D+01  .171900000000D+04  .000000000000D+00
     .340000000000D+01  .000000000000D+00 -.558793544769D-08  .620000000000D+02
     .720600000000D+04  .400000000000D+01
10 12 12 16  4  0  0.0 -.623757950962D-04 -.147792889038D-11  .000000000000D+00
     .185000000000D+03 -.137500000000D+02  .532450750140D-08  .137798516638D+00
    -.646337866783D-06  .121501678368D-01  .594556331635D-05  .515373574257D+04
     .144000000000D+05  .111758708954D-07  .248530829417D+01  .221654772758D-06
     .944460630268D+00  .257312500000D+03  .782104681296D+00 -.857535719805D-08
    -.355014787791D-09  .100000000000D+01  .171900000000D+04  .000000000000D+00
     .340000000000D+01  .000000000000D+00 -.279396772385D-08  .185000000000D+03
     .720600000000D+04  .400000000000D+01
11 12 12 16  4  0  0.0 -.333691481501D-03 -.386535248253D-11  .000000000000D+00
     .680000000000D+02  .304375000000D+02  .596917721162D-08  .282562306485D+01
     .149197876453D-05  .137820027303D-01  .999867916107D-05  .515368376350D+04
     .144000000000D+05  .875443220139D-07  .113333597343D+01 -.558793544769D-07
     .888188396475D+00  .144156250000D+03  .113183200733D+01 -.845749514576D-08
     .610739725475D-09  .100000000000D+01  .171900000000D+04  .000000000000D+00
     .240000000000D+01  .000000000000D+00 -.116415321827D-07  .680000000000D+02
     .720600000000D+04  .400000000000D+01
12 12 12 16  4  0  0.0  .107112806290D-03  .204636307899D-11  .000000000000D+00
     .170000000000D+02 -.781875000000D+02  .428803575676D-08  .234519325261D+01
    -.412575900555D-05  .407275068574D-02  .237487256527D-05  .515365813065D+04
     .144000000000D+05 -.614672899246D-07 -.646146847684D+00  .745058059692D-07
     .982390190072D+00  .344281250000D+03  .139633166590D+00 -.818212653270D-08
    -.259296515026D-09  .100000000000D+01  .171900000000D+04  .000000000000D+00
     .240000000000D+01  .000000000000D+00 -.121071934700D-07  .170000000000D+02
     .720600000000D+04  .400000000000D+01
13 12 12 16  4  0  0.0  .159838702530D-03 -.284217094304D-11  .000000000000D+00
     .920000000000D+02  .833125000000D+02  .376337104522D-08 -.124472080926D+01
     .422261655331D-05  .481621921062D-02  .124443322420D-04  .515358893967D+04
     .144000000000D+05 -.707805156708D-07 -.267281002602D+01 -.391155481339D-07
     .983785181939D+00  .157562500000D+03  .207059109433D+01 -.763174646430D-08
    -.197508227010D-09  .100000000000D+01  .171900000000D+04  .000000000000D+00
     .240000000000D+01  .000000000000D+00 -.111758708954D-07  .920000000000D+02
     .720600000000D+04  .400000000000D+01
14 12 12 16  4  0  0.0  .218322966248D-03  .568434188608D-12  .000000000000D+00
     .100000000000D+02  .639687500000D+02  .394766443607D-08 -.106988546395D+01
     .348314642906D-05  .677671551239D-02  .113341957331D-04  .515369244003D+04
     .144000000000D+05  .186264514923D-07 -.270090784738D+01  .199303030968D-06
     .976539370636D+00  .171625000000D+03 -.201600049950D+01 -.771424990090D-08
    -.207151485834D-09  .100000000000D+01  .171900000000D+04  .000000000000D+00
     .240000000000D+01  .000000000000D+00 -.884756445885D-08  .100000000000D+02
     .720600000000D+04  .400000000000D+01
